[
    {
        "Altitude(m)": 571150.0467868545,
        "Argument of Periapsis(deg)": 0.006622991110713501,
        "Eccentricity": 0.0,
        "Inclination(deg)": 53.0,
        "Latitude(deg)": -51.35889405336603,
        "Longitude(deg)": -26.149652866289504,
        "Mean Anomaly(deg)": -102.63570713242244,
        "RAAN(deg)": 184.990143368528,
        "Satellite Name": "Starlink Shell 1 829",
        "Satellite Number": 829,
        "Semi-Major Axis(m)": 6931778.249405717,
        "Time(s)": 190
    },
    {
        "Altitude(m)": 571216.5911637796,
        "Argument of Periapsis(deg)": 0.0069715695902247375,
        "Eccentricity": 0.0,
        "Inclination(deg)": 53.0,
        "Latitude(deg)": -51.528764838877265,
        "Longitude(deg)": -25.228931931015325,
        "Mean Anomaly(deg)": -102.00887592886566,
        "RAAN(deg)": 184.98962459845055,
        "Satellite Name": "Starlink Shell 1 829",
        "Satellite Number": 829,
        "Semi-Major Axis(m)": 6931778.249405717,
        "Time(s)": 200
    },
    {
        "Altitude(m)": 571279.9053597478,
        "Argument of Periapsis(deg)": 0.007320148069735974,
        "Eccentricity": 0.0,
        "Inclination(deg)": 53.0,
        "Latitude(deg)": -51.69068730735139,
        "Longitude(deg)": -24.301206081383103,
        "Mean Anomaly(deg)": -101.38204472530902,
        "RAAN(deg)": 184.98910582837306,
        "Satellite Name": "Starlink Shell 1 829",
        "Satellite Number": 829,
        "Semi-Major Axis(m)": 6931778.249405717,
        "Time(s)": 210
    },
    {
        "Altitude(m)": 571339.9641280688,
        "Argument of Periapsis(deg)": 0.007668726549247212,
        "Eccentricity": 0.0,
        "Inclination(deg)": 53.0,
        "Latitude(deg)": -51.8445593077949,
        "Longitude(deg)": -23.366726431777685,
        "Mean Anomaly(deg)": -100.75521352175227,
        "RAAN(deg)": 184.9885870582956,
        "Satellite Name": "Starlink Shell 1 829",
        "Satellite Number": 829,
        "Semi-Major Axis(m)": 6931778.249405717,
        "Time(s)": 220
    },
    {
        "Altitude(m)": 571396.7435140045,
        "Argument of Periapsis(deg)": 0.00801730502875845,
        "Eccentricity": 0.0,
        "Inclination(deg)": 53.0,
        "Latitude(deg)": -51.99028216832842,
        "Longitude(deg)": -22.425760048329522,
        "Mean Anomaly(deg)": -100.1283823181956,
        "RAAN(deg)": 184.9880682882181,
        "Satellite Name": "Starlink Shell 1 829",
        "Satellite Number": 829,
        "Semi-Major Axis(m)": 6931778.249405717,
        "Time(s)": 230
    },
    {
        "Altitude(m)": 571450.2208651168,
        "Argument of Periapsis(deg)": 0.008365883508269684,
        "Eccentricity": 0.0,
        "Inclination(deg)": 53.0,
        "Latitude(deg)": -52.1277609762985,
        "Longitude(deg)": -21.478589204528486,
        "Mean Anomaly(deg)": -99.50155111463884,
        "RAAN(deg)": 184.98754951814064,
        "Satellite Name": "Starlink Shell 1 829",
        "Satellite Number": 829,
        "Semi-Major Axis(m)": 6931778.249405717,
        "Time(s)": 240
    },
    {
        "Altitude(m)": 571500.3748411197,
        "Argument of Periapsis(deg)": 0.008714461987780921,
        "Eccentricity": 0.0,
        "Inclination(deg)": 53.0,
        "Latitude(deg)": -52.25690485545374,
        "Longitude(deg)": -20.525512066818617,
        "Mean Anomaly(deg)": -98.8747199110821,
        "RAAN(deg)": 184.9870307480632,
        "Satellite Name": "Starlink Shell 1 829",
        "Satellite Number": 829,
        "Semi-Major Axis(m)": 6931778.249405717,
        "Time(s)": 250
    },
    {
        "Altitude(m)": 571547.1854231075,
        "Argument of Periapsis(deg)": 0.009063040467292158,
        "Eccentricity": 0.0,
        "Inclination(deg)": 53.0,
        "Latitude(deg)": -52.37762723850018,
        "Longitude(deg)": -19.566841782711695,
        "Mean Anomaly(deg)": -98.2478887075254,
        "RAAN(deg)": 184.98651197798569,
        "Satellite Name": "Starlink Shell 1 829",
        "Satellite Number": 829,
        "Semi-Major Axis(m)": 6931778.249405717,
        "Time(s)": 260
    },
    {
        "Altitude(m)": 571590.6339222243,
        "Argument of Periapsis(deg)": 0.009411618946803396,
        "Eccentricity": 0.0,
        "Inclination(deg)": 53.0,
        "Latitude(deg)": -52.48984613324007,
        "Longitude(deg)": -18.60290548395014,
        "Mean Anomaly(deg)": -97.62105750396871,
        "RAAN(deg)": 184.98599320790825,
        "Satellite Name": "Starlink Shell 1 829",
        "Satellite Number": 829,
        "Semi-Major Axis(m)": 6931778.249405717,
        "Time(s)": 270
    },
    {
        "Altitude(m)": 571630.7029877906,
        "Argument of Periapsis(deg)": 0.009760197426314633,
        "Eccentricity": 0.0,
        "Inclination(deg)": 53.0,
        "Latitude(deg)": -52.593484380692594,
        "Longitude(deg)": -17.63404471618514,
        "Mean Anomaly(deg)": -96.99422630041202,
        "RAAN(deg)": 184.9854744378308,
        "Satellite Name": "Starlink Shell 1 829",
        "Satellite Number": 829,
        "Semi-Major Axis(m)": 6931778.249405717,
        "Time(s)": 280
    },
    {
        "Altitude(m)": 571667.3766147859,
        "Argument of Periapsis(deg)": 0.01010877590582587,
        "Eccentricity": 0.0,
        "Inclination(deg)": 53.0,
        "Latitude(deg)": -52.688469903193976,
        "Longitude(deg)": -16.66061427208217,
        "Mean Anomaly(deg)": -96.36739509685523,
        "RAAN(deg)": 184.9849556677533,
        "Satellite Name": "Starlink Shell 1 829",
        "Satellite Number": 829,
        "Semi-Major Axis(m)": 6931778.249405717,
        "Time(s)": 290
    },
    {
        "Altitude(m)": 571700.640150783,
        "Argument of Periapsis(deg)": 0.010457354385337106,
        "Eccentricity": 0.0,
        "Inclination(deg)": 53.0,
        "Latitude(deg)": -52.77473594089248,
        "Longitude(deg)": -15.68298094096664,
        "Mean Anomaly(deg)": -95.74056389329859,
        "RAAN(deg)": 184.9844368976758,
        "Satellite Name": "Starlink Shell 1 829",
        "Satellite Number": 829,
        "Semi-Major Axis(m)": 6931778.249405717,
        "Time(s)": 300
    },
    {
        "Altitude(m)": 571730.4803023059,
        "Argument of Periapsis(deg)": 0.010805932864848343,
        "Eccentricity": 0.0,
        "Inclination(deg)": 53.0,
        "Latitude(deg)": -52.852221274835536,
        "Longitude(deg)": -14.7015236910835,
        "Mean Anomaly(deg)": -95.11373268974182,
        "RAAN(deg)": 184.98391812759834,
        "Satellite Name": "Starlink Shell 1 829",
        "Satellite Number": 829,
        "Semi-Major Axis(m)": 6931778.249405717,
        "Time(s)": 310
    },
    {
        "Altitude(m)": 571756.8851405727,
        "Argument of Periapsis(deg)": 0.01115451134435958,
        "Eccentricity": 0.0,
        "Inclination(deg)": 53.0,
        "Latitude(deg)": -52.92087043497785,
        "Longitude(deg)": -13.716632262136386,
        "Mean Anomaly(deg)": -94.48690148618515,
        "RAAN(deg)": 184.98339935752085,
        "Satellite Name": "Starlink Shell 1 829",
        "Satellite Number": 829,
        "Semi-Major Axis(m)": 6931778.249405717,
        "Time(s)": 320
    },
    {
        "Altitude(m)": 571779.8441066593,
        "Argument of Periapsis(deg)": 0.011503089823870818,
        "Eccentricity": 0.0,
        "Inclination(deg)": 53.0,
        "Latitude(deg)": -52.980633891509676,
        "Longitude(deg)": -12.728705685398385,
        "Mean Anomaly(deg)": -93.8600702826284,
        "RAAN(deg)": 184.9828805874434,
        "Satellite Name": "Starlink Shell 1 829",
        "Satellite Number": 829,
        "Semi-Major Axis(m)": 6931778.249405717,
        "Time(s)": 330
    },
    {
        "Altitude(m)": 571799.3480160668,
        "Argument of Periapsis(deg)": 0.011851668303382053,
        "Eccentricity": 0.0,
        "Inclination(deg)": 53.0,
        "Latitude(deg)": -53.031468227999945,
        "Longitude(deg)": -11.738152249577015,
        "Mean Anomaly(deg)": -93.23323907907165,
        "RAAN(deg)": 184.98236181736593,
        "Satellite Name": "Starlink Shell 1 829",
        "Satellite Number": 829,
        "Semi-Major Axis(m)": 6931778.249405717,
        "Time(s)": 340
    },
    {
        "Altitude(m)": 571815.389062711,
        "Argument of Periapsis(deg)": 0.012200246782893292,
        "Eccentricity": 0.0,
        "Inclination(deg)": 53.0,
        "Latitude(deg)": -53.07333629495812,
        "Longitude(deg)": -10.74538789282083,
        "Mean Anomaly(deg)": -92.60640787551499,
        "RAAN(deg)": 184.98184304728844,
        "Satellite Name": "Starlink Shell 1 829",
        "Satellite Number": 829,
        "Semi-Major Axis(m)": 6931778.249405717,
        "Time(s)": 350
    },
    {
        "Altitude(m)": 571827.9608222774,
        "Argument of Periapsis(deg)": 0.012548825262404526,
        "Eccentricity": 0.0,
        "Inclination(deg)": 53.0,
        "Latitude(deg)": -53.10620734256297,
        "Longitude(deg)": -9.750834540663435,
        "Mean Anomaly(deg)": -91.97957667195828,
        "RAAN(deg)": 184.98132427721097,
        "Satellite Name": "Starlink Shell 1 829",
        "Satellite Number": 829,
        "Semi-Major Axis(m)": 6931778.249405717,
        "Time(s)": 360
    },
    {
        "Altitude(m)": 571837.058255018,
        "Argument of Periapsis(deg)": 0.012897403741915765,
        "Eccentricity": 0.0,
        "Inclination(deg)": 53.0,
        "Latitude(deg)": -53.130057131461,
        "Longitude(deg)": -8.754919910401778,
        "Mean Anomaly(deg)": -91.35274546840158,
        "RAAN(deg)": 184.98080550713354,
        "Satellite Name": "Starlink Shell 1 829",
        "Satellite Number": 829,
        "Semi-Major Axis(m)": 6931778.249405717,
        "Time(s)": 370
    }
]